CCSDS_OMM_VERS = 2.0
CREATION_DATE  = 
ORIGINATOR     = 

OBJECT_NAME    = ISS OBJECT YE
OBJECT_ID      = 1998-067YE
CENTER_NAME    = EARTH
REF_FRAME      = TEME
TIME_SYSTEM    = UTC
MEAN_ELEMENT_THEORY = SGP/SGP4

EPOCH          = 2026-02-28T10:44:38.850432
MEAN_MOTION    = 15.51456739
ECCENTRICITY   = .00076189
INCLINATION    = 51.6321
RA_OF_ASC_NODE = 117.6961
ARG_OF_PERICENTER = 120.4932
MEAN_ANOMALY   = 239.6810

EPHEMERIS_TYPE = 0
CLASSIFICATION_TYPE = U
NORAD_CAT_ID   = 67688
ELEMENT_SET_NO = 999
REV_AT_EPOCH   = 327
BSTAR          = .71844388E-3
MEAN_MOTION_DOT = .42995E-3
MEAN_MOTION_DDOT = 0

CCSDS_OMM_VERS = 2.0
CREATION_DATE  = 
ORIGINATOR     = 

OBJECT_NAME    = PRC TEST SPACECRAFT 4
OBJECT_ID      = 2026-024A
CENTER_NAME    = EARTH
REF_FRAME      = TEME
TIME_SYSTEM    = UTC
MEAN_ELEMENT_THEORY = SGP/SGP4

EPOCH          = 2026-02-28T23:39:15.252480
MEAN_MOTION    = 14.91680197
ECCENTRICITY   = .00061445
INCLINATION    = 49.9854
RA_OF_ASC_NODE = 63.6305
ARG_OF_PERICENTER = 326.6024
MEAN_ANOMALY   = 33.4529

EPHEMERIS_TYPE = 0
CLASSIFICATION_TYPE = U
NORAD_CAT_ID   = 67689
ELEMENT_SET_NO = 999
REV_AT_EPOCH   = 328
BSTAR          = .33429925E-4
MEAN_MOTION_DOT = .96E-6
MEAN_MOTION_DDOT = 0

CCSDS_OMM_VERS = 2.0
CREATION_DATE  = 
ORIGINATOR     = 

OBJECT_NAME    = CZ-2F R/B
OBJECT_ID      = 2026-024B
CENTER_NAME    = EARTH
REF_FRAME      = TEME
TIME_SYSTEM    = UTC
MEAN_ELEMENT_THEORY = SGP/SGP4

EPOCH          = 2026-02-28T23:23:59.727840
MEAN_MOTION    = 15.33939451
ECCENTRICITY   = .01754504
INCLINATION    = 49.9879
RA_OF_ASC_NODE = 58.2943
ARG_OF_PERICENTER = 238.7758
MEAN_ANOMALY   = 119.5907

EPHEMERIS_TYPE = 0
CLASSIFICATION_TYPE = U
NORAD_CAT_ID   = 67690
ELEMENT_SET_NO = 999
REV_AT_EPOCH   = 335
BSTAR          = .36739339E-3
MEAN_MOTION_DOT = .19927E-3
MEAN_MOTION_DDOT = 0

CCSDS_OMM_VERS = 2.0
CREATION_DATE  = 
ORIGINATOR     = 

OBJECT_NAME    = CZ-2F DEB
OBJECT_ID      = 2026-024C
CENTER_NAME    = EARTH
REF_FRAME      = TEME
TIME_SYSTEM    = UTC
MEAN_ELEMENT_THEORY = SGP/SGP4

EPOCH          = 2026-02-28T21:40:01.987392
MEAN_MOTION    = 15.88109372
ECCENTRICITY   = .01795054
INCLINATION    = 49.9045
RA_OF_ASC_NODE = 52.2385
ARG_OF_PERICENTER = 251.3140
MEAN_ANOMALY   = 106.8281

EPHEMERIS_TYPE = 0
CLASSIFICATION_TYPE = U
NORAD_CAT_ID   = 67691
ELEMENT_SET_NO = 999
REV_AT_EPOCH   = 341
BSTAR          = .77325732E-3
MEAN_MOTION_DOT = .96101E-2
MEAN_MOTION_DDOT = .1072976E-4

CCSDS_OMM_VERS = 2.0
CREATION_DATE  = 
ORIGINATOR     = 

OBJECT_NAME    = CZ-2F DEB
OBJECT_ID      = 2026-024D
CENTER_NAME    = EARTH
REF_FRAME      = TEME
TIME_SYSTEM    = UTC
MEAN_ELEMENT_THEORY = SGP/SGP4

EPOCH          = 2026-02-28T21:16:59.128608
MEAN_MOTION    = 15.21491269
ECCENTRICITY   = .02446286
INCLINATION    = 50.3172
RA_OF_ASC_NODE = 61.8441
ARG_OF_PERICENTER = 245.4631
MEAN_ANOMALY   = 112.0651

EPHEMERIS_TYPE = 0
CLASSIFICATION_TYPE = U
NORAD_CAT_ID   = 67692
ELEMENT_SET_NO = 999
REV_AT_EPOCH   = 328
BSTAR          = .39809258E-2
MEAN_MOTION_DOT = .215159E-2
MEAN_MOTION_DDOT = 0

CCSDS_OMM_VERS = 2.0
CREATION_DATE  = 
ORIGINATOR     = 

OBJECT_NAME    = STARLINK-36748
OBJECT_ID      = 2026-025A
CENTER_NAME    = EARTH
REF_FRAME      = TEME
TIME_SYSTEM    = UTC
MEAN_ELEMENT_THEORY = SGP/SGP4

EPOCH          = 2026-02-28T21:39:07.330752
MEAN_MOTION    = 15.75326393
ECCENTRICITY   = .00014089
INCLINATION    = 97.2843
RA_OF_ASC_NODE = 171.0008
ARG_OF_PERICENTER = 57.6662
MEAN_ANOMALY   = 302.4739

EPHEMERIS_TYPE = 0
CLASSIFICATION_TYPE = U
NORAD_CAT_ID   = 67693
ELEMENT_SET_NO = 999
REV_AT_EPOCH   = 455
BSTAR          = .19570437E-2
MEAN_MOTION_DOT = .304207E-2
MEAN_MOTION_DDOT = 0

CCSDS_OMM_VERS = 2.0
CREATION_DATE  = 
ORIGINATOR     = 

OBJECT_NAME    = STARLINK-36753
OBJECT_ID      = 2026-025B
CENTER_NAME    = EARTH
REF_FRAME      = TEME
TIME_SYSTEM    = UTC
MEAN_ELEMENT_THEORY = SGP/SGP4

EPOCH          = 2026-02-28T21:27:57.476736
MEAN_MOTION    = 15.75254737
ECCENTRICITY   = .00014672
INCLINATION    = 97.2839
RA_OF_ASC_NODE = 171.0103
ARG_OF_PERICENTER = 71.2363
MEAN_ANOMALY   = 288.9062

EPHEMERIS_TYPE = 0
CLASSIFICATION_TYPE = U
NORAD_CAT_ID   = 67694
ELEMENT_SET_NO = 999
REV_AT_EPOCH   = 456
BSTAR          = .16965403E-2
MEAN_MOTION_DOT = .261557E-2
MEAN_MOTION_DDOT = 0

CCSDS_OMM_VERS = 2.0
CREATION_DATE  = 
ORIGINATOR     = 

OBJECT_NAME    = STARLINK-36750
OBJECT_ID      = 2026-025C
CENTER_NAME    = EARTH
REF_FRAME      = TEME
TIME_SYSTEM    = UTC
MEAN_ELEMENT_THEORY = SGP/SGP4

EPOCH          = 2026-02-28T22:39:30.544128
MEAN_MOTION    = 15.80960879
ECCENTRICITY   = .00011766
INCLINATION    = 97.2839
RA_OF_ASC_NODE = 171.0972
ARG_OF_PERICENTER = 89.6509
MEAN_ANOMALY   = 270.4894

EPHEMERIS_TYPE = 0
CLASSIFICATION_TYPE = U
NORAD_CAT_ID   = 67695
ELEMENT_SET_NO = 999
REV_AT_EPOCH   = 456
BSTAR          = .18523892E-2
MEAN_MOTION_DOT = .372729E-2
MEAN_MOTION_DDOT = 0

CCSDS_OMM_VERS = 2.0
CREATION_DATE  = 
ORIGINATOR     = 

OBJECT_NAME    = STARLINK-36401
OBJECT_ID      = 2026-025D
CENTER_NAME    = EARTH
REF_FRAME      = TEME
TIME_SYSTEM    = UTC
MEAN_ELEMENT_THEORY = SGP/SGP4

EPOCH          = 2026-02-28T22:00:01.999584
MEAN_MOTION    = 15.75914925
ECCENTRICITY   = .00015368
INCLINATION    = 97.2844
RA_OF_ASC_NODE = 171.0678
ARG_OF_PERICENTER = 69.6966
MEAN_ANOMALY   = 134.2837

EPHEMERIS_TYPE = 0
CLASSIFICATION_TYPE = U
NORAD_CAT_ID   = 67696
ELEMENT_SET_NO = 999
REV_AT_EPOCH   = 444
BSTAR          = -.73161427E-2
MEAN_MOTION_DOT = -.10188E-1
MEAN_MOTION_DDOT = 0

CCSDS_OMM_VERS = 2.0
CREATION_DATE  = 
ORIGINATOR     = 

OBJECT_NAME    = STARLINK-36704
OBJECT_ID      = 2026-025E
CENTER_NAME    = EARTH
REF_FRAME      = TEME
TIME_SYSTEM    = UTC
MEAN_ELEMENT_THEORY = SGP/SGP4

EPOCH          = 2026-02-28T22:56:23.033760
MEAN_MOTION    = 15.75272236
ECCENTRICITY   = .00014301
INCLINATION    = 97.2841
RA_OF_ASC_NODE = 171.0793
ARG_OF_PERICENTER = 71.1572
MEAN_ANOMALY   = 288.9849

EPHEMERIS_TYPE = 0
CLASSIFICATION_TYPE = U
NORAD_CAT_ID   = 67697
ELEMENT_SET_NO = 999
REV_AT_EPOCH   = 456
BSTAR          = .1511321E-2
MEAN_MOTION_DOT = .23236E-2
MEAN_MOTION_DDOT = 0

CCSDS_OMM_VERS = 2.0
CREATION_DATE  = 
ORIGINATOR     = 

OBJECT_NAME    = STARLINK-36697
OBJECT_ID      = 2026-025F
CENTER_NAME    = EARTH
REF_FRAME      = TEME
TIME_SYSTEM    = UTC
MEAN_ELEMENT_THEORY = SGP/SGP4

EPOCH          = 2026-02-28T22:30:12.354336
MEAN_MOTION    = 15.80926625
ECCENTRICITY   = .0001343
INCLINATION    = 97.2849
RA_OF_ASC_NODE = 171.1048
ARG_OF_PERICENTER = 98.9661
MEAN_ANOMALY   = 261.1760

EPHEMERIS_TYPE = 0
CLASSIFICATION_TYPE = U
NORAD_CAT_ID   = 67698
ELEMENT_SET_NO = 999
REV_AT_EPOCH   = 456
BSTAR          = .12444959E-2
MEAN_MOTION_DOT = .246333E-2
MEAN_MOTION_DDOT = 0

CCSDS_OMM_VERS = 2.0
CREATION_DATE  = 
ORIGINATOR     = 

OBJECT_NAME    = STARLINK-36716
OBJECT_ID      = 2026-025G
CENTER_NAME    = EARTH
REF_FRAME      = TEME
TIME_SYSTEM    = UTC
MEAN_ELEMENT_THEORY = SGP/SGP4

EPOCH          = 2026-02-28T22:27:43.212384
MEAN_MOTION    = 15.80907780
ECCENTRICITY   = .00016101
INCLINATION    = 97.2852
RA_OF_ASC_NODE = 171.1070
ARG_OF_PERICENTER = 70.5653
MEAN_ANOMALY   = 289.5789

EPHEMERIS_TYPE = 0
CLASSIFICATION_TYPE = U
NORAD_CAT_ID   = 67699
ELEMENT_SET_NO = 999
REV_AT_EPOCH   = 457
BSTAR          = .1305045E-2
MEAN_MOTION_DOT = .258466E-2
MEAN_MOTION_DDOT = 0

