ISS OBJECT YE           
1 67688U 98067YE  26059.44767188  .00042995  00000+0  71844-3 0  9997
2 67688  51.6321 117.6961 0007618 120.4932 239.6810 15.51456739  3276
PRC TEST SPACECRAFT 4   
1 67689U 26024A   26059.98559320  .00000096  00000+0  33430-4 0  9994
2 67689  49.9854  63.6305 0006144 326.6024  33.4529 14.91680197  3283
CZ-2F R/B               
1 67690U 26024B   26059.97499685  .00019927  00000+0  36739-3 0  9999
2 67690  49.9879  58.2943 0175450 238.7758 119.5907 15.33939451  3355
CZ-2F DEB               
1 67691U 26024C   26059.90280078  .00961010  10730-4  77326-3 0  9999
2 67691  49.9045  52.2385 0179505 251.3140 106.8281 15.88109372  3418
CZ-2F DEB               
1 67692U 26024D   26059.88679547  .00215159  00000+0  39809-2 0  9993
2 67692  50.3172  61.8441 0244628 245.4631 112.0651 15.21491269  3284
STARLINK-36748          
1 67693U 26025A   26059.90216818  .00304207  00000+0  19570-2 0  9992
2 67693  97.2843 171.0008 0001408  57.6662 302.4739 15.75326393  4554
STARLINK-36753          
1 67694U 26025B   26059.89441524  .00261557  00000+0  16965-2 0  9990
2 67694  97.2839 171.0103 0001467  71.2363 288.9062 15.75254737  4561
STARLINK-36750          
1 67695U 26025C   26059.94410352  .00372729  00000+0  18524-2 0  9999
2 67695  97.2839 171.0972 0001176  89.6509 270.4894 15.80960879  4564
STARLINK-36401          
1 67696U 26025D   26059.91668981 -.01018800  00000+0 -73161-2 0  9998
2 67696  97.2844 171.0678 0001536  69.6966 134.2837 15.75914925  4445
STARLINK-36704          
1 67697U 26025E   26059.95582215  .00232360  00000+0  15113-2 0  9997
2 67697  97.2841 171.0793 0001430  71.1572 288.9849 15.75272236  4560
STARLINK-36697          
1 67698U 26025F   26059.93764299  .00246333  00000+0  12445-2 0  9990
2 67698  97.2849 171.1048 0001343  98.9661 261.1760 15.80926625  4561
STARLINK-36716          
1 67699U 26025G   26059.93591681  .00258466  00000+0  13050-2 0  9997
2 67699  97.2852 171.1070 0001610  70.5653 289.5789 15.80907780  4572
